IRIDIUM 7 [-]           
1 24793U 97020B   24027.96917720  .00000556  00000+0  18841-3 0  9999
2 24793  86.3948  28.9393 0002177  83.0891 277.0552 14.35054609399270
IRIDIUM 5 [-]           
1 24795U 97020D   24027.82183545  .00004459  00000+0  43685-3 0  9996
2 24795  86.3959 315.4468 0126827 142.9230 218.0842 14.86070257410063
IRIDIUM 4 [-]           
1 24796U 97020E   24027.92701788  .00000613  00000+0  20466-3 0  9993
2 24796  86.3949  26.1716 0002347  87.6865 272.4600 14.35965975399790
IRIDIUM 914 [-]         
1 24836U 97030A   24027.57021345  .00000806  00000+0  25078-3 0  9992
2 24836  86.3915  36.4066 0004112  91.0286 269.1384 14.39801043534206
IRIDIUM 16 [-]          
1 24841U 97030F   24027.61670073  .00000746  00000+0  24194-3 0  9992
2 24841  86.3997  58.0091 0000772  17.5851 342.5373 14.37686480394199
IRIDIUM 911 [-]         
1 24842U 97030G   24027.62461021  .00000920  00000+0  25112-3 0  9990
2 24842  86.4424  57.2509 0013959 354.9628   5.1431 14.46259742401836
IRIDIUM 17 [-]          
1 24870U 97034B   24027.70530877  .00000707  00000+0  23304-3 0  9994
2 24870  86.3931  87.6294 0001402 142.9650 217.1644 14.36783578390833
IRIDIUM 920 [-]         
1 24871U 97034C   24027.66245840  .00000697  00000+0  21283-3 0  9995
2 24871  86.3935  68.0420 0010050 320.8750  39.1722 14.40504654393630
